{"fetched_at":"2026-03-29T16:36:15Z","count":15609,"tles":[{"name":"STARLINK-2424","line1":"1 47834U 21018AZ  26087.60090985  .00001509  00000+0  63054-4 0  9994","line2":"2 47834  53.1605 157.1926 0001133  86.9612 273.1519 15.30196482279644","category":"Starlink"}]}